{
  "type": "FeatureCollection",
  "features": [
    {
      "type": "Feature",
      "id": 1,
      "properties": {
        "feature_type": "OilSlick",
        "classification": "MINERAL_OIL_SPILL",
        "severity": "MEDIUM",
        "confidence": 0.937370,
        "area_km2": 2.508300,
        "perimeter_km": 6.335045,
        "aspect_ratio": 2.015709,
        "orientation_deg": -89.970436,
        "mean_damping_db": 8.882300,
        "mean_contrast_db": 8.882300,
        "centroid_lon": 71.366192,
        "centroid_lat": 19.334724,
        "drift_24h_lon": 71.220875,
        "drift_24h_lat": 19.255557
      },
      "geometry": {
        "type": "Polygon",
        "coordinates": [[
          [71.365519, 19.340388],
          [71.369328, 19.340208],
          [71.371041, 19.339939],
          [71.372946, 19.339310],
          [71.373326, 19.339310],
          [71.375707, 19.338232],
          [71.377135, 19.337154],
          [71.378087, 19.335717],
          [71.378182, 19.334100],
          [71.377896, 19.333291],
          [71.376944, 19.332124],
          [71.375897, 19.331315],
          [71.374659, 19.330686],
          [71.371803, 19.329698],
          [71.370851, 19.329518],
          [71.370756, 19.329608],
          [71.369994, 19.329339],
          [71.368280, 19.329249],
          [71.367899, 19.329069],
          [71.363805, 19.329159],
          [71.360854, 19.329608],
          [71.358569, 19.330327],
          [71.356474, 19.331315],
          [71.354951, 19.332573],
          [71.354284, 19.333830],
          [71.354189, 19.335447],
          [71.354951, 19.336885],
          [71.356093, 19.337873],
          [71.356855, 19.338322],
          [71.359616, 19.339490],
          [71.363139, 19.340208],
          [71.365519, 19.340388]
        ]]
      }
    },
    {
      "type": "Feature",
      "id": 2,
      "properties": {
        "feature_type": "OilSlick",
        "classification": "MINERAL_OIL_SPILL",
        "severity": "LOW",
        "confidence": 0.963894,
        "area_km2": 0.807100,
        "perimeter_km": 3.593550,
        "aspect_ratio": 1.002528,
        "orientation_deg": 14.815856,
        "mean_damping_db": 9.605645,
        "mean_contrast_db": 9.605645,
        "centroid_lon": 71.382465,
        "centroid_lat": 19.319365,
        "drift_24h_lon": 71.237162,
        "drift_24h_lat": 19.240198
      },
      "geometry": {
        "type": "Polygon",
        "coordinates": [[
          [71.381419, 19.323859],
          [71.383323, 19.323859],
          [71.385037, 19.323230],
          [71.386180, 19.322242],
          [71.386656, 19.321613],
          [71.387132, 19.320535],
          [71.387227, 19.318649],
          [71.387132, 19.318110],
          [71.386656, 19.317122],
          [71.385894, 19.316134],
          [71.385323, 19.315684],
          [71.384275, 19.315145],
          [71.383228, 19.314876],
          [71.381705, 19.314876],
          [71.379896, 19.315505],
          [71.378753, 19.316493],
          [71.377801, 19.318110],
          [71.377706, 19.319996],
          [71.378277, 19.321613],
          [71.379039, 19.322601],
          [71.379515, 19.322961],
          [71.381419, 19.323859]
        ]]
      }
    },
    {
      "type": "Feature",
      "id": 1001,
      "properties": {
        "feature_type": "ReverseDriftPlume",
        "corridor_area_km2": 461.436487,
        "origin_lon": 71.360251,
        "origin_lat": 19.359178,
        "excessive_uncertainty": false,
        "warning_message": ""
      },
      "geometry": {
        "type": "Polygon",
        "coordinates": [[
          [71.476232, 19.349695],
          [71.474836, 19.377845],
          [71.465632, 19.404722],
          [71.449245, 19.428496],
          [71.426794, 19.447545],
          [71.399808, 19.460573],
          [71.370127, 19.466691],
          [71.339772, 19.465482],
          [71.310813, 19.457028],
          [71.285223, 19.441906],
          [71.264746, 19.421147],
          [71.250778, 19.396164],
          [71.244270, 19.368661],
          [71.245666, 19.340512],
          [71.254870, 19.313634],
          [71.271257, 19.289861],
          [71.293708, 19.270811],
          [71.320694, 19.257784],
          [71.350375, 19.251666],
          [71.380730, 19.252875],
          [71.409689, 19.261328],
          [71.435279, 19.276450],
          [71.455756, 19.297210],
          [71.469724, 19.322192],
          [71.476232, 19.349695]
        ]]
      }
    },
    {
      "type": "Feature",
      "id": 1101,
      "properties": {
        "feature_type": "ReconstructedOrigin",
        "corridor_id": 1001,
        "origin_lon": 71.360251,
        "origin_lat": 19.359178
      },
      "geometry": {
        "type": "Point",
        "coordinates": [71.360251, 19.359178]
      }
    },
    {
      "type": "Feature",
      "id": 1002,
      "properties": {
        "feature_type": "ReverseDriftPlume",
        "corridor_area_km2": 461.436521,
        "origin_lon": 71.376524,
        "origin_lat": 19.343819,
        "excessive_uncertainty": false,
        "warning_message": ""
      },
      "geometry": {
        "type": "Polygon",
        "coordinates": [[
          [71.492495, 19.334337],
          [71.491099, 19.362486],
          [71.481895, 19.389363],
          [71.465510, 19.413137],
          [71.443061, 19.432186],
          [71.416078, 19.445214],
          [71.386399, 19.451332],
          [71.356047, 19.450123],
          [71.327091, 19.441669],
          [71.301503, 19.426547],
          [71.281028, 19.405788],
          [71.267061, 19.380805],
          [71.260554, 19.353302],
          [71.261950, 19.325153],
          [71.271153, 19.298275],
          [71.287538, 19.274502],
          [71.309987, 19.255452],
          [71.336971, 19.242425],
          [71.366650, 19.236307],
          [71.397001, 19.237516],
          [71.425958, 19.245969],
          [71.451545, 19.261091],
          [71.472020, 19.281851],
          [71.485987, 19.306833],
          [71.492495, 19.334337]
        ]]
      }
    },
    {
      "type": "Feature",
      "id": 1102,
      "properties": {
        "feature_type": "ReconstructedOrigin",
        "corridor_id": 1002,
        "origin_lon": 71.376524,
        "origin_lat": 19.343819
      },
      "geometry": {
        "type": "Point",
        "coordinates": [71.376524, 19.343819]
      }
    },
    {
      "type": "Feature",
      "id": 2001,
      "properties": {
        "feature_type": "RadarHardTarget",
        "target_id": 1,
        "pixel_r": 168,
        "pixel_c": 168,
        "peak_rcs_db": 15.000000,
        "snr_db": 18.684170,
        "has_correlated_ais": true,
        "correlated_mmsi": "538009115"
      },
      "geometry": {
        "type": "Point",
        "coordinates": [71.365995, 19.334908]
      }
    },
    {
      "type": "Feature",
      "id": 2002,
      "properties": {
        "feature_type": "RadarHardTarget",
        "target_id": 2,
        "pixel_r": 168,
        "pixel_c": 169,
        "peak_rcs_db": 14.108559,
        "snr_db": 19.902998,
        "has_correlated_ais": false,
        "correlated_mmsi": ""
      },
      "geometry": {
        "type": "Point",
        "coordinates": [71.366090, 19.334908]
      }
    },
    {
      "type": "Feature",
      "id": 2003,
      "properties": {
        "feature_type": "RadarHardTarget",
        "target_id": 3,
        "pixel_r": 168,
        "pixel_c": 170,
        "peak_rcs_db": 11.116165,
        "snr_db": 16.910255,
        "has_correlated_ais": false,
        "correlated_mmsi": ""
      },
      "geometry": {
        "type": "Point",
        "coordinates": [71.366186, 19.334908]
      }
    },
    {
      "type": "Feature",
      "id": 2004,
      "properties": {
        "feature_type": "RadarHardTarget",
        "target_id": 4,
        "pixel_r": 168,
        "pixel_c": 171,
        "peak_rcs_db": 14.717374,
        "snr_db": 20.511148,
        "has_correlated_ais": false,
        "correlated_mmsi": ""
      },
      "geometry": {
        "type": "Point",
        "coordinates": [71.366281, 19.334908]
      }
    },
    {
      "type": "Feature",
      "id": 2005,
      "properties": {
        "feature_type": "RadarHardTarget",
        "target_id": 5,
        "pixel_r": 168,
        "pixel_c": 172,
        "peak_rcs_db": 14.219887,
        "snr_db": 17.658796,
        "has_correlated_ais": false,
        "correlated_mmsi": ""
      },
      "geometry": {
        "type": "Point",
        "coordinates": [71.366376, 19.334908]
      }
    },
    {
      "type": "Feature",
      "id": 2006,
      "properties": {
        "feature_type": "RadarHardTarget",
        "target_id": 6,
        "pixel_r": 169,
        "pixel_c": 168,
        "peak_rcs_db": 10.748029,
        "snr_db": 17.541731,
        "has_correlated_ais": false,
        "correlated_mmsi": ""
      },
      "geometry": {
        "type": "Point",
        "coordinates": [71.365995, 19.334818]
      }
    },
    {
      "type": "Feature",
      "id": 2007,
      "properties": {
        "feature_type": "RadarHardTarget",
        "target_id": 7,
        "pixel_r": 169,
        "pixel_c": 169,
        "peak_rcs_db": 15.000000,
        "snr_db": 34.584412,
        "has_correlated_ais": false,
        "correlated_mmsi": ""
      },
      "geometry": {
        "type": "Point",
        "coordinates": [71.366090, 19.334818]
      }
    },
    {
      "type": "Feature",
      "id": 2008,
      "properties": {
        "feature_type": "RadarHardTarget",
        "target_id": 8,
        "pixel_r": 169,
        "pixel_c": 170,
        "peak_rcs_db": 14.036703,
        "snr_db": 33.623138,
        "has_correlated_ais": false,
        "correlated_mmsi": ""
      },
      "geometry": {
        "type": "Point",
        "coordinates": [71.366186, 19.334818]
      }
    },
    {
      "type": "Feature",
      "id": 2009,
      "properties": {
        "feature_type": "RadarHardTarget",
        "target_id": 9,
        "pixel_r": 169,
        "pixel_c": 171,
        "peak_rcs_db": 14.842316,
        "snr_db": 34.434010,
        "has_correlated_ais": false,
        "correlated_mmsi": ""
      },
      "geometry": {
        "type": "Point",
        "coordinates": [71.366281, 19.334818]
      }
    },
    {
      "type": "Feature",
      "id": 2010,
      "properties": {
        "feature_type": "RadarHardTarget",
        "target_id": 10,
        "pixel_r": 169,
        "pixel_c": 172,
        "peak_rcs_db": 13.574344,
        "snr_db": 19.825346,
        "has_correlated_ais": false,
        "correlated_mmsi": ""
      },
      "geometry": {
        "type": "Point",
        "coordinates": [71.366376, 19.334818]
      }
    },
    {
      "type": "Feature",
      "id": 2011,
      "properties": {
        "feature_type": "RadarHardTarget",
        "target_id": 11,
        "pixel_r": 170,
        "pixel_c": 168,
        "peak_rcs_db": 15.000000,
        "snr_db": 21.794380,
        "has_correlated_ais": false,
        "correlated_mmsi": ""
      },
      "geometry": {
        "type": "Point",
        "coordinates": [71.365995, 19.334729]
      }
    },
    {
      "type": "Feature",
      "id": 2012,
      "properties": {
        "feature_type": "RadarHardTarget",
        "target_id": 12,
        "pixel_r": 170,
        "pixel_c": 169,
        "peak_rcs_db": 11.928340,
        "snr_db": 31.522285,
        "has_correlated_ais": false,
        "correlated_mmsi": ""
      },
      "geometry": {
        "type": "Point",
        "coordinates": [71.366090, 19.334729]
      }
    },
    {
      "type": "Feature",
      "id": 2013,
      "properties": {
        "feature_type": "RadarHardTarget",
        "target_id": 13,
        "pixel_r": 170,
        "pixel_c": 170,
        "peak_rcs_db": 12.424294,
        "snr_db": 31.995270,
        "has_correlated_ais": false,
        "correlated_mmsi": ""
      },
      "geometry": {
        "type": "Point",
        "coordinates": [71.366186, 19.334729]
      }
    },
    {
      "type": "Feature",
      "id": 2014,
      "properties": {
        "feature_type": "RadarHardTarget",
        "target_id": 14,
        "pixel_r": 170,
        "pixel_c": 171,
        "peak_rcs_db": 13.153107,
        "snr_db": 32.721188,
        "has_correlated_ais": false,
        "correlated_mmsi": ""
      },
      "geometry": {
        "type": "Point",
        "coordinates": [71.366281, 19.334729]
      }
    },
    {
      "type": "Feature",
      "id": 2015,
      "properties": {
        "feature_type": "RadarHardTarget",
        "target_id": 15,
        "pixel_r": 170,
        "pixel_c": 172,
        "peak_rcs_db": 12.330748,
        "snr_db": 18.579887,
        "has_correlated_ais": false,
        "correlated_mmsi": ""
      },
      "geometry": {
        "type": "Point",
        "coordinates": [71.366376, 19.334729]
      }
    },
    {
      "type": "Feature",
      "id": 2016,
      "properties": {
        "feature_type": "RadarHardTarget",
        "target_id": 16,
        "pixel_r": 171,
        "pixel_c": 168,
        "peak_rcs_db": 12.026270,
        "snr_db": 18.820215,
        "has_correlated_ais": false,
        "correlated_mmsi": ""
      },
      "geometry": {
        "type": "Point",
        "coordinates": [71.365995, 19.334639]
      }
    },
    {
      "type": "Feature",
      "id": 2017,
      "properties": {
        "feature_type": "RadarHardTarget",
        "target_id": 17,
        "pixel_r": 171,
        "pixel_c": 169,
        "peak_rcs_db": 14.499884,
        "snr_db": 34.087875,
        "has_correlated_ais": false,
        "correlated_mmsi": ""
      },
      "geometry": {
        "type": "Point",
        "coordinates": [71.366090, 19.334639]
      }
    },
    {
      "type": "Feature",
      "id": 2018,
      "properties": {
        "feature_type": "RadarHardTarget",
        "target_id": 18,
        "pixel_r": 171,
        "pixel_c": 170,
        "peak_rcs_db": 10.547216,
        "snr_db": 30.100147,
        "has_correlated_ais": false,
        "correlated_mmsi": ""
      },
      "geometry": {
        "type": "Point",
        "coordinates": [71.366186, 19.334639]
      }
    },
    {
      "type": "Feature",
      "id": 2019,
      "properties": {
        "feature_type": "RadarHardTarget",
        "target_id": 19,
        "pixel_r": 171,
        "pixel_c": 171,
        "peak_rcs_db": 9.909035,
        "snr_db": 29.470936,
        "has_correlated_ais": false,
        "correlated_mmsi": ""
      },
      "geometry": {
        "type": "Point",
        "coordinates": [71.366281, 19.334639]
      }
    },
    {
      "type": "Feature",
      "id": 2020,
      "properties": {
        "feature_type": "RadarHardTarget",
        "target_id": 20,
        "pixel_r": 171,
        "pixel_c": 172,
        "peak_rcs_db": 11.106024,
        "snr_db": 17.355345,
        "has_correlated_ais": false,
        "correlated_mmsi": ""
      },
      "geometry": {
        "type": "Point",
        "coordinates": [71.366376, 19.334639]
      }
    },
    {
      "type": "Feature",
      "id": 2021,
      "properties": {
        "feature_type": "RadarHardTarget",
        "target_id": 21,
        "pixel_r": 172,
        "pixel_c": 168,
        "peak_rcs_db": 12.435396,
        "snr_db": 16.228727,
        "has_correlated_ais": false,
        "correlated_mmsi": ""
      },
      "geometry": {
        "type": "Point",
        "coordinates": [71.365995, 19.334549]
      }
    },
    {
      "type": "Feature",
      "id": 2022,
      "properties": {
        "feature_type": "RadarHardTarget",
        "target_id": 22,
        "pixel_r": 172,
        "pixel_c": 169,
        "peak_rcs_db": 14.627363,
        "snr_db": 20.245857,
        "has_correlated_ais": false,
        "correlated_mmsi": ""
      },
      "geometry": {
        "type": "Point",
        "coordinates": [71.366090, 19.334549]
      }
    },
    {
      "type": "Feature",
      "id": 2023,
      "properties": {
        "feature_type": "RadarHardTarget",
        "target_id": 23,
        "pixel_r": 172,
        "pixel_c": 170,
        "peak_rcs_db": 15.000000,
        "snr_db": 20.616631,
        "has_correlated_ais": false,
        "correlated_mmsi": ""
      },
      "geometry": {
        "type": "Point",
        "coordinates": [71.366186, 19.334549]
      }
    },
    {
      "type": "Feature",
      "id": 2024,
      "properties": {
        "feature_type": "RadarHardTarget",
        "target_id": 24,
        "pixel_r": 172,
        "pixel_c": 171,
        "peak_rcs_db": 14.306004,
        "snr_db": 19.923485,
        "has_correlated_ais": false,
        "correlated_mmsi": ""
      },
      "geometry": {
        "type": "Point",
        "coordinates": [71.366281, 19.334549]
      }
    },
    {
      "type": "Feature",
      "id": 2025,
      "properties": {
        "feature_type": "RadarHardTarget",
        "target_id": 25,
        "pixel_r": 172,
        "pixel_c": 172,
        "peak_rcs_db": 12.057035,
        "snr_db": 15.676609,
        "has_correlated_ais": false,
        "correlated_mmsi": ""
      },
      "geometry": {
        "type": "Point",
        "coordinates": [71.366376, 19.334549]
      }
    },
    {
      "type": "Feature",
      "id": 3001,
      "properties": {
        "feature_type": "SuspectVessel",
        "candidate_mmsi": "412888901",
        "vessel_name": "SHADOW_CARRIER",
        "vessel_type": "TANKER",
        "attribution_confidence": 0.850000,
        "min_distance_to_origin_km": 2.132685,
        "is_dark_vessel": true,
        "dark_gap_hours": 11.000000,
        "is_spoofed_teleportation": false,
        "is_high_density_chokepoint": false,
        "matched_radar_hard_target": true,
        "radar_target_id": 1,
        "status_summary": "CRITICAL: Dark Vessel detected! Transponder silent for 11h but validated by CFAR Radar Target #1"
      },
      "geometry": {
        "type": "LineString",
        "coordinates": [
          [71.360000, 19.340000],
          [71.395000, 19.375000]
        ]
      }
    },
    {
      "type": "Feature",
      "id": 3002,
      "properties": {
        "feature_type": "SuspectVessel",
        "candidate_mmsi": "419000120",
        "vessel_name": "DESH_SHANTI",
        "vessel_type": "TANKER",
        "attribution_confidence": 0.385884,
        "min_distance_to_origin_km": 4.755098,
        "is_dark_vessel": false,
        "dark_gap_hours": 0.000000,
        "is_spoofed_teleportation": false,
        "is_high_density_chokepoint": false,
        "matched_radar_hard_target": false,
        "radar_target_id": 0,
        "status_summary": "Correlated vessel trajectory within 4.7551 km of spill origin."
      },
      "geometry": {
        "type": "LineString",
        "coordinates": [
          [71.310000, 19.280000],
          [71.335000, 19.292000],
          [71.360000, 19.304000]
        ]
      }
    },
    {
      "type": "Feature",
      "id": 3003,
      "properties": {
        "feature_type": "SuspectVessel",
        "candidate_mmsi": "419000450",
        "vessel_name": "SAMUDRIKA_10",
        "vessel_type": "OFFSHORE",
        "attribution_confidence": 0.751961,
        "min_distance_to_origin_km": 2.829057,
        "is_dark_vessel": false,
        "dark_gap_hours": 0.000000,
        "is_spoofed_teleportation": false,
        "is_high_density_chokepoint": false,
        "matched_radar_hard_target": false,
        "radar_target_id": 0,
        "status_summary": "Correlated vessel trajectory within 2.82906 km of spill origin."
      },
      "geometry": {
        "type": "LineString",
        "coordinates": [
          [71.385000, 19.318000],
          [71.386000, 19.320000]
        ]
      }
    },
    {
      "type": "Feature",
      "id": 3004,
      "properties": {
        "feature_type": "SuspectVessel",
        "candidate_mmsi": "419000999",
        "vessel_name": "ICGS_SAMRAT",
        "vessel_type": "LAW_ENFORCEMENT",
        "attribution_confidence": 0.913533,
        "min_distance_to_origin_km": 2.126454,
        "is_dark_vessel": false,
        "dark_gap_hours": 0.000000,
        "is_spoofed_teleportation": false,
        "is_high_density_chokepoint": false,
        "matched_radar_hard_target": false,
        "radar_target_id": 0,
        "status_summary": "Correlated vessel trajectory within 2.12645 km of spill origin."
      },
      "geometry": {
        "type": "LineString",
        "coordinates": [
          [71.300000, 19.380000],
          [71.340000, 19.360000],
          [71.380000, 19.340000]
        ]
      }
    },
    {
      "type": "Feature",
      "id": 3005,
      "properties": {
        "feature_type": "SuspectVessel",
        "candidate_mmsi": "538009115",
        "vessel_name": "FAST_RUNNER",
        "vessel_type": "CARGO",
        "attribution_confidence": 0.546658,
        "min_distance_to_origin_km": 1.655563,
        "is_dark_vessel": false,
        "dark_gap_hours": 0.000000,
        "is_spoofed_teleportation": true,
        "is_high_density_chokepoint": false,
        "matched_radar_hard_target": true,
        "radar_target_id": 1,
        "status_summary": "FRAUD WARNING: AIS Speed/Position spoofing detected (>40 knots for displacement hull)."
      },
      "geometry": {
        "type": "Point",
        "coordinates": [71.362000, 19.338000]
      }
    },
    {
      "type": "Feature",
      "id": 3006,
      "properties": {
        "feature_type": "SuspectVessel",
        "candidate_mmsi": "636019842",
        "vessel_name": "NEPTUNE_TRANSIT",
        "vessel_type": "TANKER",
        "attribution_confidence": 0.958640,
        "min_distance_to_origin_km": 1.453263,
        "is_dark_vessel": false,
        "dark_gap_hours": 0.000000,
        "is_spoofed_teleportation": false,
        "is_high_density_chokepoint": false,
        "matched_radar_hard_target": false,
        "radar_target_id": 0,
        "status_summary": "Correlated vessel trajectory within 1.45326 km of spill origin."
      },
      "geometry": {
        "type": "LineString",
        "coordinates": [
          [71.345000, 19.355000],
          [71.358000, 19.342000],
          [71.366500, 19.334800],
          [71.379000, 19.322000]
        ]
      }
    }
  ]
}
